ONEWEB-0607             
1 54671U 22166AF  24171.60747004  .00000009  00000+0 -10622-4 0  9997
2 54671  87.9288  28.8024 0001854  94.9238 265.2108 13.21826483 75424
ONEWEB-0608             
1 54672U 22166AG  24171.61377778 -.00000095  00000+0 -26242-3 0  9996
2 54672  87.9294  28.8229 0001595 102.8377 257.2935 13.21825478 75897
ONEWEB-0610             
1 54673U 22166AH  24171.67054713 -.00000006  00000+0 -46889-4 0  9996
2 54673  87.9288  28.8063 0001596  99.0888 261.0426 13.21826606 75816
ONEWEB-0611             
1 54674U 22166AJ  24171.58854063 -.00000067  00000+0 -19271-3 0  9994
2 54674  87.9289  28.8215 0002147  77.3915 282.7458 13.21826505 75329
ONEWEB-0612             
1 54675U 22166AK  24171.60115830 -.00000025  00000+0 -91309-4 0  9997
2 54675  87.9288  28.8017 0001685  92.5001 267.6326 13.21826564 75781
ONEWEB-0615             
1 54676U 22166AL  24171.65792035  .00000011  00000+0 -36548-5 0  9990
2 54676  87.9286  28.8151 0001976  92.2467 267.8893 13.21827197 75802
ONEWEB-0655             
1 54677U 22166AM  24171.63111571  .00000142  00000+0  31243-3 0  9998
2 54677  87.9288  28.8225 0002209  96.5970 263.5415 13.21824277 75790
ONEWEB-0659             
1 54678U 22166AN  24171.57275076  .00000059  00000+0  11133-3 0  9996
2 54678  87.9286  28.8408 0001882  78.7285 281.4060 13.21828001 75872
